H1 CPF 01  gfz 2022 05 18 12  6382 terrasarx 
H2 0702601  6201 31698    2022 05 18 12 59 42 2022 05 23 00 00 42   120 1 1  0 0 0
H9
10 0 59718  76302.000000  0   -3541921.235   4595103.423  -3722320.687
10 0 59718  76422.000000  0   -3066772.617   4283461.797  -4446350.743
10 0 59718  76542.000000  0   -2544467.761   3888591.126  -5092497.352
10 0 59718  76662.000000  0   -1985539.731   3416698.702  -5649537.792
10 0 59718  76782.000000  0   -1401013.788   2875498.970  -6107823.819
10 0 59718  76902.000000  0    -802189.468   2274080.786  -6459438.510
10 0 59718  77022.000000  0    -200423.881   1622750.900  -6698320.959
10 0 59718  77142.000000  0     393079.542    932856.753  -6820360.161
10 0 59718  77262.000000  0     967474.287    216591.400  -6823458.835
10 0 59718  77382.000000  0    1512465.185   -513218.109  -6707565.935
10 0 59718  77502.000000  0    2018488.194  -1243335.337  -6474675.755
10 0 59718  77622.000000  0    2476874.514  -1960348.114  -6128797.469
10 0 59718  77742.000000  0    2879997.622  -2650908.810  -5675893.750
10 0 59718  77862.000000  0    3221401.412  -3301980.129  -5123790.139
10 0 59718  77982.000000  0    3495907.055  -3901082.503  -4482049.670
10 0 59718  78102.000000  0    3699693.822  -4436534.182  -3761816.558
10 0 59718  78222.000000  0    3830355.326  -4897682.513  -2975633.184
10 0 59718  78342.000000  0    3886930.042  -5275122.848  -2137229.075
10 0 59718  78462.000000  0    3869902.038  -5560898.216  -1261283.037
10 0 59718  78582.000000  0    3781172.683  -5748672.914   -363164.850
10 0 59718  78702.000000  0    3624002.966  -5833876.848    541339.764
10 0 59718  78822.000000  0    3402927.400  -5813815.527   1436313.538
10 0 59718  78942.000000  0    3123642.624  -5687743.061   2305997.518
10 0 59718  79062.000000  0    2792870.993  -5456893.723   3135077.623
10 0 59718  79182.000000  0    2418204.627  -5124474.666   3908960.634
10 0 59718  79302.000000  0    2007934.875  -4695619.355   4614035.818
10 0 59718  79422.000000  0    1570870.120  -4177302.304   5237916.711
10 0 59718  79542.000000  0    1116147.617  -3578218.142   5769658.455
10 0 59718  79662.000000  0     653041.533  -2908626.841   6199946.979
10 0 59718  79782.000000  0     190773.603  -2180170.763   6521255.288
10 0 59718  79902.000000  0    -261669.433  -1405667.780   6727968.033
10 0 59718  80022.000000  0    -695709.063   -598884.047   6816474.686
10 0 59718  80142.000000  0   -1103336.443    225712.157   6785229.397
10 0 59718  80262.000000  0   -1477259.565   1053209.859   6634776.023
10 0 59718  80382.000000  0   -1811033.275   1868524.187   6367738.999
10 0 59718  80502.000000  0   -2099170.882   2656670.549   5988780.629
10 0 59718  80622.000000  0   -2337235.103   3403040.582   5504524.481
10 0 59718  80742.000000  0   -2521907.205   4093674.937   4923446.208
10 0 59718  80862.000000  0   -2651034.069   4715529.533   4255731.894
10 0 59718  80982.000000  0   -2723650.815   5256729.079   3513104.069
10 0 59718  81102.000000  0   -2739978.471   5706802.172   2708617.620
10 0 59718  81222.000000  0   -2701396.494   6056891.704   1856429.469
10 0 59718  81342.000000  0   -2610391.079   6299936.408    971546.197
10 0 59718  81462.000000  0   -2470479.602   6430818.723     69553.992
10 0 59718  81582.000000  0   -2286113.611   6446475.014   -833663.769
10 0 59718  81702.000000  0   -2062562.941   6345965.400  -1722216.372
10 0 59718  81822.000000  0   -1805781.963   6130497.383  -2580496.985
10 0 59718  81942.000000  0   -1522262.657   5803403.991  -3393461.850
10 0 59718  82062.000000  0   -1218880.582   5370083.206  -4146895.377
10 0 59718  82182.000000  0    -902736.545   4837897.188  -4827657.923
10 0 59718  82302.000000  0    -580997.656   4216035.770  -5423909.592
10 0 59718  82422.000000  0    -260741.114   3515348.130  -5925309.220
10 0 59718  82542.000000  0      51196.151   2748144.539  -6323184.551
10 0 59718  82662.000000  0     348357.897   1927974.023  -6610670.198
10 0 59718  82782.000000  0     624796.770   1069384.558  -6782815.171
10 0 59718  82902.000000  0     875189.048    187666.972  -6836659.723
10 0 59718  83022.000000  0    1094933.688   -701412.878  -6771280.454
10 0 59718  83142.000000  0    1280234.146  -1581890.015  -6587802.965
10 0 59718  83262.000000  0    1428162.290  -2437878.788  -6289383.824
10 0 59718  83382.000000  0    1536704.652  -3253852.491  -5881163.574
10 0 59718  83502.000000  0    1604789.043  -4014922.895  -5370188.832
10 0 59718  83622.000000  0    1632291.093  -4707112.984  -4765300.257
10 0 59718  83742.000000  0    1620021.549  -5317615.778  -4076990.303
10 0 59718  83862.000000  0    1569693.291  -5835038.883  -3317232.364
10 0 59718  83982.000000  0    1483867.799  -6249627.408  -2499279.873
10 0 59718  84102.000000  0    1365883.617  -6553459.259  -1637439.190
10 0 59718  84222.000000  0    1219767.577  -6740608.215   -746819.787
10 0 59718  84342.000000  0    1050129.192  -6807270.274    156934.113
10 0 59718  84462.000000  0     862043.103  -6751847.966   1057924.649
10 0 59718  84582.000000  0     660920.640  -6574991.672   1940287.980
10 0 59718  84702.000000  0     452375.070  -6279595.422   2788483.745
10 0 59718  84822.000000  0     242082.760  -5870745.378   3587578.017
10 0 59718  84942.000000  0      35643.775  -5355624.417   4323511.356
10 0 59718  85062.000000  0    -161553.312  -4743377.679   4983349.023
10 0 59718  85182.000000  0    -344459.543  -4044940.032   5555508.840
10 0 59718  85302.000000  0    -508483.254  -3272831.120   6029962.624
10 0 59718  85422.000000  0    -649595.435  -2440920.919   6398407.239
10 0 59718  85542.000000  0    -764420.462  -1564174.636   6654401.797
10 0 59718  85662.000000  0    -850310.580   -658381.560   6793474.452
10 0 59718  85782.000000  0    -905403.370    260130.676   6813196.979
10 0 59718  85902.000000  0    -928660.648   1174790.664   6713224.570
10 0 59718  86022.000000  0    -919887.442   2069081.667   6495301.341
10 0 59718  86142.000000  0    -879731.654   2926839.276   6163231.773
10 0 59718  86262.000000  0    -809664.787   3732544.157   5722818.710
10 0 59718  86382.000000  0    -711943.540   4471605.577   5181767.148
10 0 59719    102.000000  0    -589552.937   5130630.294   4549556.038
10 0 59719    222.000000  0    -446132.323   5697673.990   3837277.123
10 0 59719    342.000000  0    -285884.620   6162464.739   3057443.612
10 0 59719    462.000000  0    -113473.312   6516601.706   2223774.235
10 0 59719    582.000000  0      66094.024   6753718.574   1350946.161
10 0 59719    702.000000  0     247592.108   6869604.004    454331.108
10 0 59719    822.000000  0     425709.769   6862281.473   -450282.384
10 0 59719    942.000000  0     595184.861   6732043.919  -1346976.398
10 0 59719   1062.000000  0     750936.695   6481441.209  -2219992.480
10 0 59719   1182.000000  0     888193.607   6115223.484  -3054015.127
10 0 59719   1302.000000  0    1002613.666   5640241.685  -3834444.737
10 0 59719   1422.000000  0    1090395.078   5065307.846  -4547654.587
10 0 59719   1542.000000  0    1148373.614   4401019.005  -5181226.276
10 0 59719   1662.000000  0    1174104.925   3659550.341  -5724159.211
10 0 59719   1782.000000  0    1165929.695   2854423.362  -6167052.791
10 0 59719   1902.000000  0    1123020.957   2000252.736  -6502258.156
10 0 59719   2022.000000  0    1045412.804   1112479.646  -6723998.039
10 0 59719   2142.000000  0     934010.296    207094.989  -6828457.252
10 0 59719   2262.000000  0     790580.680   -699644.406  -6813841.119
10 0 59719   2382.000000  0     617725.405  -1591501.566  -6680401.614
10 0 59719   2502.000000  0     418834.308  -2452541.568  -6430432.357
10 0 59719   2622.000000  0     198022.250  -3267409.237  -6068235.695
10 0 59719   2742.000000  0     -39952.215  -4021600.871  -5600056.833
10 0 59719   2862.000000  0    -289782.977  -4701721.580  -5033985.781
10 0 59719   2982.000000  0    -545727.159  -5295726.712  -4379829.402
10 0 59719   3102.000000  0    -801729.066  -5793142.802  -3648952.420
10 0 59719   3222.000000  0   -1051554.463  -6185262.571  -2854088.564
10 0 59719   3342.000000  0   -1288932.415  -6465309.251  -2009124.838
10 0 59719   3462.000000  0   -1507701.781  -6628567.024  -1128861.115
10 0 59719   3582.000000  0   -1701958.319  -6672472.070   -228748.510
10 0 59719   3702.000000  0   -1866199.021  -6596661.139    675387.316
10 0 59719   3822.000000  0   -1995460.232  -6402976.182   1567632.063
10 0 59719   3942.000000  0   -2085445.528  -6095424.367   2432271.978
10 0 59719   4062.000000  0   -2132639.666  -5680093.965   3254079.740
10 0 59719   4182.000000  0   -2134405.438  -5165028.327   4018589.815
10 0 59719   4302.000000  0   -2089061.329  -4560062.394   4712357.327
10 0 59719   4422.000000  0   -1995938.766  -3876626.734   5323195.930
10 0 59719   4542.000000  0   -1855417.860  -3127522.293   5840391.748
10 0 59719   4662.000000  0   -1668939.354  -2326671.497   6254886.983
10 0 59719   4782.000000  0   -1438993.551  -1488854.223   6559432.243
10 0 59719   4902.000000  0   -1169087.861   -629431.561   6748707.844
10 0 59719   5022.000000  0    -863693.674    235938.145   6819410.229
10 0 59719   5142.000000  0    -528172.618   1091583.534   6770305.888
10 0 59719   5262.000000  0    -168682.292   1922103.602   6602252.198
10 0 59719   5382.000000  0     207936.633   2712644.667   6318183.288
10 0 59719   5502.000000  0     594289.665   3449165.903   5923061.730
10 0 59719   5622.000000  0     982571.812   4118690.872   5423797.359
10 0 59719   5742.000000  0    1364723.292   4709540.434   4829132.319
10 0 59719   5862.000000  0    1732594.894   5211543.258   4149493.513
10 0 59719   5982.000000  0    2078119.647   5616217.904   3396814.668
10 0 59719   6102.000000  0    2393488.502   5916926.107   2584330.622
10 0 59719   6222.000000  0    2671323.179   6108991.554   1726341.754
10 0 59719   6342.000000  0    2904844.646   6189778.065    837956.956
99
